SAUDISAT 1C             
1 27607U 02058C   23150.70002876  .00001214  00000+0  18400-3 0  9991
2 27607  64.5547 318.5397 0070650 228.1748 131.3309 14.77257614 99643
SAUDISAT 2              
1 28371U 04025F   23151.39886035  .00000369  00000+0  96424-4 0  9992
2 28371  98.4314 114.9010 0026617 113.9315 246.4673 14.54923324  3881
SAUDISAT 3              
1 31118U 07012B   23151.39816761  .00000306  00000+0  59501-4 0  9999
2 31118  98.0129  95.9539 0015368 163.0402 197.1320 14.69679641864255
PISAT                   
1 41784U 16059B   23150.84281733  .00000918  00000+0  17988-3 0  9995
2 41784  97.8704 184.9228 0032185 147.8668 212.4506 14.64662162356523
FLYING LAPTOP           
1 42831U 17042G   23151.20045617  .00000998  00000+0  10084-3 0  9990
2 42831  97.3923 349.9711 0011912 285.4650  74.5255 14.93036788319955
SALSAT                  
1 46495U 20068K   23150.79831876  .00004084  00000+0  27210-3 0  9994
2 46495  97.7690  98.6201 0015701 173.0191 187.1258 15.07582734146454
